[{"OBJECT_NAME":"JILIN-1 07","OBJECT_ID":"2018-008E","EPOCH":"2026-03-09T22:24:26.445888","MEAN_MOTION":15.32987507,"ECCENTRICITY":0.00101791,"INCLINATION":97.1876,"RA_OF_ASC_NODE":91.5817,"ARG_OF_PERICENTER":62.7832,"MEAN_ANOMALY":297.4447,"EPHEMERIS_TYPE":0,"CLASSIFICATION_TYPE":"U","NORAD_CAT_ID":43159,"ELEMENT_SET_NO":999,"REV_AT_EPOCH":44978,"BSTAR":0.00036439521,"MEAN_MOTION_DOT":0.00011559,"MEAN_MOTION_DDOT":0},{"OBJECT_NAME":"STARLINK-35146","OBJECT_ID":"2025-192T","EPOCH":"2026-03-09T17:56:44.636640","MEAN_MOTION":15.31027108,"ECCENTRICITY":8.437e-5,"INCLINATION":53.1588,"RA_OF_ASC_NODE":232.0446,"ARG_OF_PERICENTER":78.0812,"MEAN_ANOMALY":282.0284,"EPHEMERIS_TYPE":0,"CLASSIFICATION_TYPE":"U","NORAD_CAT_ID":65421,"ELEMENT_SET_NO":999,"REV_AT_EPOCH":2938,"BSTAR":0.0010564982,"MEAN_MOTION_DOT":0.00031879,"MEAN_MOTION_DDOT":0}]
